#dP2018 11  6  0  0  0.00000000      96 __u+U ITR00 FIT  IAC
## 2026 172800.00000000   900.00000000 58428 0.0000000000000
+   91   C01C02C03C04C05C06C07C08C09C10C11C12C13C14E01E02E03
+        E04E05E07E08E09E11E12E14E18E19E21E24E25E26E27E30E31
+        G01G02G03G05G06G07G08G09G10G11G12G13G14G15G16G17G18
+        G19G20G21G22G23G24G25G26G27G28G29G30G31G32J01J02J03
+        R01R02R03R04R05R07R08R09R10R11R13R14R15R16R17R18R19
+        R20R21R22R23R24R26  0  0  0  0  0  0  0  0  0  0  0
++        12 12 12 12 12  9  9  9  9  8  8  8  8  8  7  6  6
++         7  6  6  6  7  7  7  6  6  6  6  7  7  6  6  6  7
++         3  3  3  3  3  3  3  3  3  3  3  3  3  3  3  3  3
++         3  3  3  3  3  3  3  3  3  3  3  3  3  3 10 10 10
++         5  5  5  5  6  5  5  5  5  5  6  5  5  5  6  5  5
++         6  6  5  5  5  9  0  0  0  0  0  0  0  0  0  0  0
%c M  cc GPS ccc cccc cccc cccc cccc ccccc ccccc ccccc ccccc
%c cc cc ccc ccc cccc cccc cccc cccc ccccc ccccc ccccc ccccc
%f  0.0000000  0.000000000  0.00000000000  0.000000000000000
%f  0.0000000  0.000000000  0.00000000000  0.000000000000000
%i    0    0    0    0      0      0      0      0         0
%i    0    0    0    0      0      0      0      0         0
/* INFORMATION & ANALYSIS CENTER (IAC) OF MCC   (RAPID DATA)
/* S/V CLOCKS ARE ALIGNED TO GPS & GLONASS TIME RESPECTIVELY
/* USING THE BROADCAST EPHEMERIS                            
/* PCV:IGS14_2022 OL/AL:FES2004  NONE     YN ORB:CoN CLK:CoN
*  2018 11 06 14  0  0.00000000
PC01 -32298.142933  27123.638854    447.346458   -147.355321
PC02   4395.300312  41910.197253   -977.107566    -79.800788
PC03 -14716.910035  39478.006513    -20.089343    -94.814243
PC04 -39647.189466  14435.695286    138.700323    -21.412153
PC05  21929.154043  35980.559015  -1138.671467    161.576679
PC06 -18748.387894  37339.761909  -3776.796719     22.809072
PC07  -8461.675570  27256.861643  31282.907296   -129.686114
PC08 -23349.400204  20833.533586 -28332.640649     23.118995
PC09  -7737.179031  39039.275276  13588.186483    261.497594
PC10   5827.823549  34637.164379  23744.979869   -215.879729
PC11  13493.165081 -21091.190066  12296.267280    -29.677950
PC12  23403.033726 -13790.443929  -6097.698246    195.040194
PC13  -5748.974791  24009.303698 -34180.934542   -363.324295
PC14   4745.855254 -24584.619255  12423.703669    561.849060
PE01 -18438.572153 -22312.834334  -6171.492319   -472.126798
PE02  18453.795624  22309.798918   6153.999920     34.095551
PE03   7624.275948  22699.078465  17407.518285    -96.676840
PE04 -16849.951228  -3233.837602 -24121.046643   -153.084672
PE05  -6116.331826  28959.668954    459.721576    164.134613
PE07  16235.591496 -18258.223633  16704.516895    -70.359187
PE08  16745.923888   3009.373546  24220.070572   6468.219990
PE09 -15976.556446  18436.978185 -16773.422227   6625.767986
PE11 -25611.809209  13175.669480  -6815.989927   5705.238863
PE12 -26917.249624    149.436918  12309.052220   5438.036935
PE14 -19206.934281   8229.783883  12149.997233   6493.546392
PE18  24233.317655  -2420.994399 -20938.227982   5776.616990
PE19  -6327.678121 -24011.649404 -16114.768526    -10.840243
PE21  -1251.737372 -20245.009052 -21549.643578   -503.159052
PE24 -16024.144796   6726.199832  23961.792511   6403.224881
PE25   1221.381560  20241.976028  21577.759300   1991.320890
PE26   9456.490250 -18179.753110  21357.181619   5279.437345
PE27  16423.192964  -6207.380580 -23819.968848    595.944540
PE30  24363.211313  11087.525014 -12630.621504   5372.183271
PE31 -24453.239349 -11429.732645  12153.110880    990.692518
PG01  15021.035978  13360.653531 -17678.757850   -110.535102
PG02   8215.669317 -14785.079091  21011.377444    -51.095036
PG03  13609.303636  22527.319104   3797.588953    157.431799
PG05   -222.803360 -22502.323731  13824.350202     -0.386902
PG06  21996.506593  -7228.152306  13063.135827    337.970491
PG07  25422.533652   6499.664276   5716.253132     93.377213
PG08  -2480.722822  21833.480607 -14751.735911   -121.229431
PG09  14812.950749   5196.291299  21384.263340    494.746293
PG10 -15472.624826   2336.179186 -21441.137354    167.276496
PG11   9344.879176  14067.059355 -21025.368701   -702.660241
PG12  -9720.725361 -24823.484236   -188.062319    294.188400
PG13  10699.113548 -22271.139807  -9824.649095    -85.208186
PG14 -18678.260293  18152.427656  -4390.406953    -96.072882
PG15  -3043.039680 -20281.333269 -16905.579800   -340.695970
PG16  -2758.239157  21302.043560  15175.773034      0.331272
PG17  19760.824719 -11390.770364 -13105.254140    -34.903263
PG18   4722.108002  15516.042598 -21531.912785     76.410709
PG19  19292.496959 -17769.667579  -4857.171897   -386.372912
PG20 -19318.948412  -6861.329870 -17070.941740    518.332973
PG21 -26199.029210  -3165.042719   3424.216193   -308.927128
PG22  10265.790298  24195.782095  -3725.868333   -566.819713
PG23   8906.434587  14018.937552  20953.388360   -206.894200
PG24 -10455.549341 -14730.571421 -19695.273384    -57.810941
PG25 -16467.230769 -17992.081968  10616.430982   -672.816882
PG26  -9204.352038  14101.241707  20501.213549     31.436422
PG27 -11003.862539  23264.247497  -6052.722900    -14.468403
PG28  15331.388201   1139.896321 -21025.211430    753.301658
PG29 -12848.192106  -7312.607817  22043.494919    341.768022
PG30  26054.480758   -715.739191  -5541.546901     -0.744896
PG31 -20606.139902   8217.727313  14946.643078     81.581931
PG32 -19410.836375  13258.783032 -12233.288196   -367.014355
PJ01 -17618.198720  28633.146368 -20848.692119   -279.581188
PJ02 -26727.650645  20956.392437  29687.442216      0.607551
PJ03 -32365.021616  26374.516813  10515.562370      0.688526
PR01   8878.891070  14959.044361  18657.436371     34.564091
PR02  10694.319037  -6795.004186  22178.267004    338.199564
PR03   5915.491368 -22157.148978  11247.229580    148.097469
PR04  -2613.873602 -24483.111768  -6688.744293    282.728884
PR05  -9111.485556 -12976.514026 -19985.290031     14.839028
PR07  -5709.495440  22375.850847 -10767.503552    -50.998071
PR08   2274.782188  24676.266600   6080.293297     20.594036
PR09 -18620.340121  -1673.660897  17337.584383     37.288097
PR10  -5344.422955   9264.068726  23145.175718     35.127508
PR11  11928.534974  16240.798305  15691.100906    -46.227806
PR13  19023.307689   2158.825032 -16869.544746    -16.544518
PR14   5546.614621  -9429.608786 -23023.761212     32.724339
PR15  -7996.492979 -15271.569551 -18828.106930    -18.846496
PR16 -21890.651986 -13206.366711   -385.099742    105.725495
PR17  17470.667269 -15056.340155  10857.108846    178.218747
PR18   2628.061458 -12741.776589  21964.943057     26.958515
PR19 -13817.136930  -3617.285810  21137.597401    -61.319031
PR20 -23107.380718   8339.847379   6802.113227   -358.149039
PR21 -17221.599194  15093.561951 -11271.970688    -13.023714
PR22   -184.669782  11692.727666 -22649.302999    -64.758325
PR23  17220.997715    452.711751 -18815.908526    189.015580
PR24  23046.791732  -9451.888267  -5530.228690   -173.451703
PR26 -22787.585414   7903.756911   8360.391250     28.230515
EOF
